{
 "generated_at": "2026-07-13T08:17:10Z",
 "sources": [
  {
   "name": "CelesTrak",
   "url": "https://celestrak.org/NORAD/elements/",
   "license": "frei verfügbar; Attribution. Ursprünglich USSPACECOM/Space-Track."
  },
  {
   "name": "GCAT (J. McDowell, planet4589.org)",
   "url": "https://planet4589.org/space/gcat/",
   "license": "CC-BY 4.0"
  }
 ],
 "satellites": [
  {
   "norad": 58990,
   "name": "INSAT-3DS",
   "intl": "2024-033A",
   "group": "weather",
   "gcat": {
    "class": "C",
    "category": "MET",
    "owner": "ISRO",
    "state": "IN"
   },
   "omm": {
    "OBJECT_NAME": "INSAT-3DS",
    "OBJECT_ID": "2024-033A",
    "EPOCH": "2026-07-12T19:02:06.209952",
    "MEAN_MOTION": 1.0027114,
    "ECCENTRICITY": 0.0001033,
    "INCLINATION": 0.0982,
    "RA_OF_ASC_NODE": 265.1736,
    "ARG_OF_PERICENTER": 225.5133,
    "MEAN_ANOMALY": 167.591,
    "EPHEMERIS_TYPE": 0,
    "CLASSIFICATION_TYPE": "U",
    "NORAD_CAT_ID": 58990,
    "ELEMENT_SET_NO": 999,
    "REV_AT_EPOCH": 4732,
    "BSTAR": 0,
    "MEAN_MOTION_DOT": -0.00000156,
    "MEAN_MOTION_DDOT": 0
   }
  },
  {
   "norad": 61735,
   "name": "IONOSFERA-M 1",
   "intl": "2024-199A",
   "group": "resource",
   "gcat": {
    "class": "C",
    "category": "SCI",
    "owner": "VNIIEMI",
    "state": "RU"
   },
   "omm": {
    "OBJECT_NAME": "IONOSFERA-M 1",
    "OBJECT_ID": "2024-199A",
    "EPOCH": "2026-07-12T19:01:02.349984",
    "MEAN_MOTION": 14.227588,
    "ECCENTRICITY": 0.0002189,
    "INCLINATION": 98.7139,
    "RA_OF_ASC_NODE": 66.6903,
    "ARG_OF_PERICENTER": 76.0084,
    "MEAN_ANOMALY": 284.1337,
    "EPHEMERIS_TYPE": 0,
    "CLASSIFICATION_TYPE": "U",
    "NORAD_CAT_ID": 61735,
    "ELEMENT_SET_NO": 999,
    "REV_AT_EPOCH": 13134,
    "BSTAR": 0.000033767,
    "MEAN_MOTION_DOT": 3.2e-7,
    "MEAN_MOTION_DDOT": 0
   }
  },
  {
   "norad": 61736,
   "name": "IONOSFERA-M 2",
   "intl": "2024-199B",
   "group": "resource",
   "gcat": {
    "class": "C",
    "category": "SCI",
    "owner": "VNIIEMI",
    "state": "RU"
   },
   "omm": {
    "OBJECT_NAME": "IONOSFERA-M 2",
    "OBJECT_ID": "2024-199B",
    "EPOCH": "2026-07-12T19:50:20.171904",
    "MEAN_MOTION": 14.22762191,
    "ECCENTRICITY": 0.0000408,
    "INCLINATION": 98.7138,
    "RA_OF_ASC_NODE": 66.6346,
    "ARG_OF_PERICENTER": 116.7027,
    "MEAN_ANOMALY": 243.4192,
    "EPHEMERIS_TYPE": 0,
    "CLASSIFICATION_TYPE": "U",
    "NORAD_CAT_ID": 61736,
    "ELEMENT_SET_NO": 999,
    "REV_AT_EPOCH": 13447,
    "BSTAR": 0.000032177,
    "MEAN_MOTION_DOT": 2.8e-7,
    "MEAN_MOTION_DDOT": 0
   }
  },
  {
   "norad": 64876,
   "name": "IONOSFERA-M 3",
   "intl": "2025-155A",
   "group": "resource",
   "gcat": {
    "class": "C",
    "category": "SCI",
    "owner": "VNIIEMI",
    "state": "RU"
   },
   "omm": {
    "OBJECT_NAME": "IONOSFERA-M 3",
    "OBJECT_ID": "2025-155A",
    "EPOCH": "2026-07-12T20:48:53.406720",
    "MEAN_MOTION": 14.21490616,
    "ECCENTRICITY": 0.0002226,
    "INCLINATION": 98.6038,
    "RA_OF_ASC_NODE": 155.1278,
    "ARG_OF_PERICENTER": 116.0624,
    "MEAN_ANOMALY": 244.0783,
    "EPHEMERIS_TYPE": 0,
    "CLASSIFICATION_TYPE": "U",
    "NORAD_CAT_ID": 64876,
    "ELEMENT_SET_NO": 999,
    "REV_AT_EPOCH": 5005,
    "BSTAR": 0.000023333,
    "MEAN_MOTION_DOT": 8e-8,
    "MEAN_MOTION_DDOT": 0
   }
  },
  {
   "norad": 64877,
   "name": "IONOSFERA-M 4",
   "intl": "2025-155B",
   "group": "resource",
   "gcat": {
    "class": "C",
    "category": "SCI",
    "owner": "VNIIEMI",
    "state": "RU"
   },
   "omm": {
    "OBJECT_NAME": "IONOSFERA-M 4",
    "OBJECT_ID": "2025-155B",
    "EPOCH": "2026-07-12T19:57:38.348640",
    "MEAN_MOTION": 14.21493015,
    "ECCENTRICITY": 0.0001777,
    "INCLINATION": 98.6037,
    "RA_OF_ASC_NODE": 155.0102,
    "ARG_OF_PERICENTER": 101.9412,
    "MEAN_ANOMALY": 258.1965,
    "EPHEMERIS_TYPE": 0,
    "CLASSIFICATION_TYPE": "U",
    "NORAD_CAT_ID": 64877,
    "ELEMENT_SET_NO": 999,
    "REV_AT_EPOCH": 5004,
    "BSTAR": 0.000025969,
    "MEAN_MOTION_DOT": 1.4e-7,
    "MEAN_MOTION_DDOT": 0
   }
  },
  {
   "norad": 28649,
   "name": "IRS-P5 (CARTOSAT-1)",
   "intl": "2005-017A",
   "group": "resource",
   "gcat": {
    "class": null,
    "category": null,
    "owner": null,
    "state": null
   },
   "omm": {
    "OBJECT_NAME": "IRS-P5 (CARTOSAT-1)",
    "OBJECT_ID": "2005-017A",
    "EPOCH": "2026-07-12T15:30:21.381120",
    "MEAN_MOTION": 14.91113249,
    "ECCENTRICITY": 0.0001526,
    "INCLINATION": 97.5306,
    "RA_OF_ASC_NODE": 215.5555,
    "ARG_OF_PERICENTER": 56.0467,
    "MEAN_ANOMALY": 304.0897,
    "EPHEMERIS_TYPE": 0,
    "CLASSIFICATION_TYPE": "U",
    "NORAD_CAT_ID": 28649,
    "ELEMENT_SET_NO": 999,
    "REV_AT_EPOCH": 14761,
    "BSTAR": 0.000062269,
    "MEAN_MOTION_DOT": 0.00000565,
    "MEAN_MOTION_DDOT": 0
   }
  },
  {
   "norad": 41240,
   "name": "JASON-3",
   "intl": "2016-002A",
   "group": "resource",
   "gcat": {
    "class": "C",
    "category": "SCI/MET",
    "owner": "CNES/NOAA",
    "state": "F"
   },
   "omm": {
    "OBJECT_NAME": "JASON-3",
    "OBJECT_ID": "2016-002A",
    "EPOCH": "2026-07-12T20:48:14.866272",
    "MEAN_MOTION": 12.87628493,
    "ECCENTRICITY": 0.0008207,
    "INCLINATION": 66.0416,
    "RA_OF_ASC_NODE": 71.8477,
    "ARG_OF_PERICENTER": 271.1363,
    "MEAN_ANOMALY": 88.8715,
    "EPHEMERIS_TYPE": 0,
    "CLASSIFICATION_TYPE": "U",
    "NORAD_CAT_ID": 41240,
    "ELEMENT_SET_NO": 999,
    "REV_AT_EPOCH": 49055,
    "BSTAR": 0.00011088,
    "MEAN_MOTION_DOT": -3.4e-7,
    "MEAN_MOTION_DDOT": 0
   }
  },
  {
   "norad": 39731,
   "name": "KAZEOSAT 1",
   "intl": "2014-024A",
   "group": "resource",
   "gcat": {
    "class": "C",
    "category": "IMG",
    "owner": "KAZK",
    "state": "KZ"
   },
   "omm": {
    "OBJECT_NAME": "KAZEOSAT 1",
    "OBJECT_ID": "2014-024A",
    "EPOCH": "2026-07-12T19:59:32.178048",
    "MEAN_MOTION": 14.4203607,
    "ECCENTRICITY": 0.0001244,
    "INCLINATION": 98.3204,
    "RA_OF_ASC_NODE": 265.6407,
    "ARG_OF_PERICENTER": 82.4578,
    "MEAN_ANOMALY": 277.6753,
    "EPHEMERIS_TYPE": 0,
    "CLASSIFICATION_TYPE": "U",
    "NORAD_CAT_ID": 39731,
    "ELEMENT_SET_NO": 999,
    "REV_AT_EPOCH": 64225,
    "BSTAR": -0.0000096324,
    "MEAN_MOTION_DOT": -7.4e-7,
    "MEAN_MOTION_DDOT": 0
   }
  },
  {
   "norad": 40010,
   "name": "KAZEOSAT 2",
   "intl": "2014-033A",
   "group": "resource",
   "gcat": {
    "class": "C",
    "category": "IMG",
    "owner": "KAZK",
    "state": "KZ"
   },
   "omm": {
    "OBJECT_NAME": "KAZEOSAT 2",
    "OBJECT_ID": "2014-033A",
    "EPOCH": "2026-07-12T19:50:28.500864",
    "MEAN_MOTION": 14.85496633,
    "ECCENTRICITY": 0.0007278,
    "INCLINATION": 97.54,
    "RA_OF_ASC_NODE": 32.0832,
    "ARG_OF_PERICENTER": 228.9037,
    "MEAN_ANOMALY": 131.1551,
    "EPHEMERIS_TYPE": 0,
    "CLASSIFICATION_TYPE": "U",
    "NORAD_CAT_ID": 40010,
    "ELEMENT_SET_NO": 999,
    "REV_AT_EPOCH": 65276,
    "BSTAR": 0.000003042,
    "MEAN_MOTION_DOT": -2.4e-7,
    "MEAN_MOTION_DDOT": 0
   }
  },
  {
   "norad": 43783,
   "name": "KAZSTSAT",
   "intl": "2018-099AB",
   "group": "resource",
   "gcat": {
    "class": "B",
    "category": "IMG",
    "owner": "GHALAM",
    "state": "KZ"
   },
   "omm": {
    "OBJECT_NAME": "KAZSTSAT",
    "OBJECT_ID": "2018-099AB",
    "EPOCH": "2026-07-12T15:33:38.349792",
    "MEAN_MOTION": 14.99952,
    "ECCENTRICITY": 0.0007501,
    "INCLINATION": 97.4318,
    "RA_OF_ASC_NODE": 224.4284,
    "ARG_OF_PERICENTER": 351.1054,
    "MEAN_ANOMALY": 9.0035,
    "EPHEMERIS_TYPE": 0,
    "CLASSIFICATION_TYPE": "U",
    "NORAD_CAT_ID": 43783,
    "ELEMENT_SET_NO": 999,
    "REV_AT_EPOCH": 41512,
    "BSTAR": 0.000061823,
    "MEAN_MOTION_DOT": 0.00000712,
    "MEAN_MOTION_DDOT": 0
   }
  }
 ]
}
